AMC-1 (GE-1)            
1 24315U 96054A   22214.51998222  .00000069  00000+0  00000+0 0  9991
2 24315   5.7237  72.7723 0003090  51.8588 242.7433  1.00273086 94832
AMC-3 (GE-3)            
1 24936U 97050A   22213.55032302 -.00000257  00000+0  00000+0 0  9998
2 24936   4.6504  79.0804 0002907  58.7464 298.4122  1.00271947 38230
ASTRA 1G                
1 25071U 97076A   22213.85551729  .00000118  00000+0  00000+0 0  9994
2 25071   6.3438  67.9517 0003243  58.9172 150.9375  1.00270420 90342
ASTRA 2A                
1 25462U 98050A   22214.15007552  .00000073  00000+0  00000+0 0  9995
2 25462   3.5134  85.1088 0002080  42.0865 294.7487  1.00273009 87550
AMC-4 (GE-4)            
1 25954U 99060A   22213.68135646  .00000092  00000+0  00000+0 0  9997
2 25954   1.6284  91.3963 0002988  35.6339 293.6102  1.00271984 29359
NSS-11 (AAP-1)          
1 26554U 00059A   22214.53011470  .00000031  00000+0  00000+0 0  9990
2 26554   0.0511 277.6975 0002301 192.9141 207.3124  1.00270258 79984
AMC-6 (GE-6)            
1 26580U 00067A   22213.75214233  .00000110  00000+0  00000+0 0  9991
2 26580   0.0553 276.4080 0002488 223.8588 301.8238  1.00273619 79720
ASTRA 2D                
1 26638U 00081A   22213.78466806  .00000132  00000+0  00000+0 0  9993
2 26638   7.3857  60.0082 0001570  74.6079 121.9461  1.00270024 79195
AMC-8 (GE-8)            
1 26639U 00081B   22214.51172903  .00000093  00000+0  00000+0 0  9994
2 26639   2.5597  88.1310 0002810  27.0553 245.1027  1.00271778 79099
ASTRA 2C                
1 26853U 01025A   22213.58426441 -.00000256  00000+0  00000+0 0  9998
2 26853   4.6748  78.8854 0002701  49.2335 319.8925  1.00274168 30853
ASTRA 3A                
1 27400U 02015B   22213.54744539 -.00000200  00000+0  00000+0 0  9993
2 27400   7.4847  58.8796 0001011  68.3353 293.2032  1.00269747 74524
NSS-7                   
1 27414U 02019A   22214.42166534 -.00000154  00000+0  00000+0 0  9991
2 27414   6.0038  70.9490 0002394  77.0004 294.8302  1.00271640 74372
NSS-6                   
1 27603U 02057A   22214.54829354  .00000113  00000+0  00000+0 0  9996
2 27603   1.7220  91.1688 0003380  38.5486 209.2529  1.00269670 71854
AMC-11 (GE-11)          
1 28252U 04017A   22213.68214125  .00000074  00000+0  00000+0 0  9999
2 28252   0.0638 282.0275 0002686 202.5569 300.2386  1.00273490 66689
AMC-15                  
1 28446U 04041A   22214.54878927 -.00000082  00000+0  00000+0 0  9993
2 28446   0.0667 283.6325 0002650 193.6909 286.2963  1.00272278 65167
NSS-10 (AMC-12)         
1 28526U 05003A   22214.13124023 -.00000246  00000+0  00000+0 0  9999
2 28526   2.8933  86.8913 0002869  26.9560 206.6398  1.00270287 64133
ASTRA 1KR               
1 29055U 06012A   22213.85551729  .00000125  00000+0  00000+0 0  9998
2 29055   0.0536 258.0302 0003011 274.0654 105.4979  1.00272435 31531
AMC-18                  
1 29644U 06054B   22214.33742976 -.00000210  00000+0  00000+0 0  9994
2 29644   0.0551 276.2392 0002675 215.3130 217.8281  1.00273936 57354
ASTRA 1L                
1 31306U 07016A   22214.50124229  .00000126  00000+0  00000+0 0  9990
2 31306   0.0829 294.7158 0000725 198.0135  17.9782  1.00269542 55857
ASTRA 4A (SIRIUS 4)     
1 32299U 07057A   22214.13961147  .00000038  00000+0  00000+0 0  9996
2 32299   0.0106  18.2406 0002780 111.8192 235.7114  1.00272475 53778
AMC-21                  
1 33275U 08038B   22214.52540132  .00000042  00000+0  00000+0 0  9996
2 33275   0.0599 280.2695 0002377 211.8485 243.2071  1.00271684 51289
ASTRA 1M                
1 33436U 08057A   22214.28603616  .00000126  00000+0  00000+0 0  9999
2 33436   0.0247 101.4535 0005139  35.6097 295.9511  1.00272169 50297
CIEL-2                  
1 33453U 08063A   22214.20396792  .00000064  00000+0  00000+0 0  9992
2 33453   0.0119 152.0703 0002942 335.8797 127.3959  1.00272365 49935
NSS-9                   
1 33749U 09008A   22214.53846817  .00000078  00000+0  00000+0 0  9999
2 33749   0.0331 277.6259 0002022 213.5221 196.8768  1.00272753 49370
SES-7 (PROTOSTAR 2)     
1 34941U 09027A   22214.13660399 -.00000339  00000+0  00000+0 0  9991
2 34941   0.0155  46.8996 0000421 171.5677 249.6806  1.00271581 48425
NSS-12                  
1 36032U 09058A   22214.15007552  .00000077  00000+0  00000+0 0  9994
2 36032   0.0607 277.1981 0002745 217.4111 287.1274  1.00272781 46727
SES-1                   
1 36516U 10016A   22214.11859619 -.00000109  00000+0  00000+0 0  9999
2 36516   0.0344 271.9601 0002417 211.7426 128.6722  1.00272464 44942
ASTRA 3B                
1 36581U 10021A   22214.14336109  .00000143  00000+0  00000+0 0  9991
2 36581   0.0405  34.9434 0003384 104.5762 246.2835  1.00271478 44462
SES-3                   
1 37748U 11035A   22214.30238049 -.00000096  00000+0  00000+0 0  9993
2 37748   0.0402 294.2959 0002789 193.7581 188.6710  1.00271674 40505
ASTRA 1N                
1 37775U 11041A   22214.14248909  .00000125  00000+0  00000+0 0  9990
2 37775   0.0462  33.0237 0003949  59.0032 289.1632  1.00270244 40213
SES-2                   
1 37809U 11049A   22213.83437227 -.00000190  00000+0  00000+0 0  9997
2 37809   0.0499 269.2523 0002790 220.2161  34.3143  1.00272703 39778
QUETZSAT 1              
1 37826U 11054A   22214.48205819 -.00000235  00000+0  00000+0 0  9994
2 37826   0.0090  38.2170 0002980 101.8800 267.4857  1.00270534 39918
SES-4                   
1 38087U 12007A   22213.63206146 -.00000163  00000+0  00000+0 0  9993
2 38087   0.0152 356.5111 0002383 143.3031  15.9247  1.00270509 38046
SES-5                   
1 38652U 12036A   22213.85268434  .00000039  00000+0  00000+0 0  9996
2 38652   0.0618 283.5310 0002172 209.6151 129.2270  1.00271747 30295
ASTRA 2F                
1 38778U 12051A   22214.14432031  .00000156  00000+0  00000+0 0  9991
2 38778   0.0877 252.0485 0002819 289.3046 209.4564  1.00271550 36106
SES-6                   
1 39172U 13026A   22214.48938303 -.00000255  00000+0  00000+0 0  9994
2 39172   0.0335 275.4099 0002018 206.2620 325.0578  1.00270396 33532
O3B FM5                 
1 39188U 13031A   22213.85233089 -.00000015  00000+0  00000+0 0  9990
2 39188   0.0532  23.5264 0002566 108.8773 227.6172  5.00115276166227
O3B FM4                 
1 39189U 13031B   22213.90840684 -.00000015  00000+0  00000+0 0  9992
2 39189   0.0566 354.1911 0002525 137.6680 228.1616  5.00115814166349
O3B FM2                 
1 39190U 13031C   22213.59836551 -.00000015  00000+0  00000+0 0  9997
2 39190   0.0595 350.0268 0001058 132.1970 237.7855  4.99476808166289
O3B PFM                 
1 39191U 13031D   22213.02665547 -.00000016  00000+0  00000+0 0  9992
2 39191   0.0511  13.9567 0002648 115.9557 230.1097  5.00115701165820
ASTRA 2E                
1 39285U 13056A   22213.90188521  .00000155  00000+0  00000+0 0  9995
2 39285   0.0569 355.6126 0002197 130.6476 177.3563  1.00269701 32242
SES-8                   
1 39460U 13071A   22213.86369025 -.00000264  00000+0  00000+0 0  9994
2 39460   0.0551 260.7455 0002799 204.1586 251.4657  1.00271705 31688
ASTRA 5B                
1 39617U 14011B   22214.14493071  .00000160  00000+0  00000+0 0  9998
2 39617   0.0341  41.1411 0003562  94.8203 258.4104  1.00273453 30686
O3B FM3                 
1 40079U 14038A   22214.48063470 -.00000014  00000+0  00000+0 0  9993
2 40079   0.0548   1.8795 0005054 126.1310 232.0345  5.00115366147353
O3B FM7                 
1 40080U 14038B   22213.82703479 -.00000015  00000+0  00000+0 0  9993
2 40080   0.0588 359.9854 0001022 165.3854 194.6313  5.00115437147077
O3B FM6                 
1 40081U 14038C   22213.65351773 -.00000015  00000+0  00000+0 0  9991
2 40081   0.0543   1.0877 0002692 130.8418 228.0925  5.00115422147015
O3B FM8                 
1 40082U 14038D   22213.70746965 -.00000015  00000+0  00000+0 0  9999
2 40082   0.0541 357.6814 0002687 130.1179 232.2241  5.00115650147130
O3B FM10                
1 40348U 14083A   22214.53304091 -.00000014  00000+0  00000+0 0  9995
2 40348   0.0485   8.7932 0002632 122.3205 228.9084  5.00115151139291
O3B FM11                
1 40349U 14083B   22213.74695605 -.00000015  00000+0  00000+0 0  9993
2 40349   0.0528  10.7090 0002235 133.8555 215.4495  5.00115394139108
O3B FM12                
1 40350U 14083C   22213.37437052 -.00000015  00000+0  00000+0 0  9994
2 40350   0.0525   9.7827 0002686 124.5687 225.6695  5.00115275139097
O3B FM9                 
1 40351U 14083D   22213.60120744 -.00000015  00000+0  00000+0 0  9998
2 40351   0.0538  11.4722 0002583 120.1208 228.4282  5.00115597139251
ASTRA 2G                
1 40364U 14089A   22214.14432031  .00000156  00000+0  00000+0 0  9998
2 40364   0.0489 313.7965 0003849 137.8109 299.2550  1.00275034 27831
SES-9                   
1 41380U 16013A   22214.30382503 -.00000339  00000+0  00000+0 0  9996
2 41380   0.0452 272.4228 0001993 196.5962  59.5279  1.00270576 23567
SES-10                  
1 42432U 17017A   22214.12539781 -.00000267  00000+0  00000+0 0  9992
2 42432   0.0116  63.9708 0002860  66.7798 158.1968  1.00271921 19536
SES-15                  
1 42709U 17026A   22213.68249006  .00000065  00000+0  00000+0 0  9992
2 42709   0.0256 343.3937 0000414 134.6295 308.7866  1.00267745 19941
SES-11 (ECHOSTAR 105)   
1 42967U 17063A   22213.68728608 -.00000084  00000+0  00000+0 0  9991
2 42967   0.0132  85.2881 0002311  49.8406 317.5979  1.00271451 17534
SES-14                  
1 43175U 18012B   22214.41625890 -.00000272  00000+0  00000+0 0  9998
2 43175   0.0374 288.5210 0000982 193.4368 291.3701  1.00271176 16864
O3B FM15                
1 43231U 18024A   22214.46672374 -.00000014  00000+0  00000+0 0  9992
2 43231   0.0451   7.7827 0002886 126.5736 225.6668  5.00116011 80424
O3B FM16                
1 43232U 18024B   22214.52010105 -.00000014  00000+0  00000+0 0  9998
2 43232   0.0409   7.7475 0002849 126.7985 225.4767  5.00115879 80412
O3B FM14                
1 43233U 18024C   22213.96001170 -.00000014  00000+0  00000+0 0  9998
2 43233   0.0395   6.7144 0002665 128.5629 224.7434  5.00115284 80389
O3B FM13                
1 43234U 18024D   22208.01678119 -.00000024  00000+0  00000+0 0  9993
2 43234   0.0510  40.2456 0003497  99.1240 220.6543  5.00115073 79979
SES-12                  
1 43488U 18049A   22214.51641514 -.00000263  00000+0  00000+0 0  9997
2 43488   0.0120  49.5412 0000951 186.5871 355.8436  1.00272301 15228
O3B FM20                
1 44112U 19020A   22213.78684675 -.00000015  00000+0  00000+0 0  9990
2 44112   0.0484   8.0150 0002891 132.9774 219.0277  5.00115462 60757
O3B FM19                
1 44113U 19020B   22210.81524545 -.00000020  00000+0  00000+0 0  9997
2 44113   0.0551  23.5318 0001731 107.7214 228.7598  5.00115059 60689
O3B FM17                
1 44114U 19020C   22214.49383846 -.00000014  00000+0  00000+0 0  9996
2 44114   0.0433 343.8092 0002984 151.6040 224.6102  5.00115537 60869
O3B FM18                
1 44115U 19020D   22214.04059366 -.00000014  00000+0  00000+0 0  9995
2 44115   0.0486   8.5485 0002874 122.8969 228.5786  5.00115773 60848
SES-17                  
1 49332U 21095A   22214.48406382 -.00000266  00000+0  00000+0 0  9997
2 49332   0.0127  94.8239 0001224  39.1139 284.2726  1.00272911  3651
SES-22                  
1 52933U 22071A   22212.41478314  .00000071  00000+0  00000+0 0  9991
2 52933   0.0343 259.2720 0000103  62.3946   1.4286  1.00475148   343
